[{"OBJECT_NAME":"STARLINK-1039","OBJECT_ID":"2019-074AH","EPOCH":"2026-03-09T14:46:14.325312","MEAN_MOTION":15.21697508,"ECCENTRICITY":0.000318,"INCLINATION":53.0506,"RA_OF_ASC_NODE":215.4382,"ARG_OF_PERICENTER":172.5659,"MEAN_ANOMALY":187.5385,"EPHEMERIS_TYPE":0,"CLASSIFICATION_TYPE":"U","NORAD_CAT_ID":44744,"ELEMENT_SET_NO":999,"REV_AT_EPOCH":34834,"BSTAR":0.0027625,"MEAN_MOTION_DOT":0.00063546,"MEAN_MOTION_DDOT":0},{"OBJECT_NAME":"STARLINK-30361","OBJECT_ID":"2023-131M","EPOCH":"2026-03-09T22:00:01.999584","MEAN_MOTION":15.12419132,"ECCENTRICITY":0.0001562,"INCLINATION":42.9992,"RA_OF_ASC_NODE":170.2609,"ARG_OF_PERICENTER":271.7692,"MEAN_ANOMALY":21.2571,"EPHEMERIS_TYPE":0,"CLASSIFICATION_TYPE":"U","NORAD_CAT_ID":57743,"ELEMENT_SET_NO":999,"REV_AT_EPOCH":578,"BSTAR":0.070351527,"MEAN_MOTION_DOT":0.01353414,"MEAN_MOTION_DDOT":0}]
